<?xml version="1.0" encoding="UTF-8"?>
<ndm xmlns:xsi="http://www.w3.org/2001/XMLSchema-instance" xsi:noNamespaceSchemaLocation="https://sanaregistry.org/r/ndmxml_unqualified/ndmxml-2.0.0-master-2.0.xsd">
<omm id="CCSDS_OMM_VERS" version="2.0">
<header><CREATION_DATE/><ORIGINATOR/></header><body><segment><metadata><OBJECT_NAME>ORBCOMM FM05 [-]</OBJECT_NAME><OBJECT_ID>1997-084F</OBJECT_ID><CENTER_NAME>EARTH</CENTER_NAME><REF_FRAME>TEME</REF_FRAME><TIME_SYSTEM>UTC</TIME_SYSTEM><MEAN_ELEMENT_THEORY>SGP4</MEAN_ELEMENT_THEORY></metadata><data><meanElements><EPOCH>2024-02-28T10:32:45.440448</EPOCH><MEAN_MOTION>14.42245292</MEAN_MOTION><ECCENTRICITY>.0002883</ECCENTRICITY><INCLINATION>45.0145</INCLINATION><RA_OF_ASC_NODE>120.7548</RA_OF_ASC_NODE><ARG_OF_PERICENTER>313.9109</ARG_OF_PERICENTER><MEAN_ANOMALY>46.1503</MEAN_ANOMALY></meanElements><tleParameters><EPHEMERIS_TYPE>0</EPHEMERIS_TYPE><CLASSIFICATION_TYPE>U</CLASSIFICATION_TYPE><NORAD_CAT_ID>25117</NORAD_CAT_ID><ELEMENT_SET_NO>999</ELEMENT_SET_NO><REV_AT_EPOCH>37198</REV_AT_EPOCH><BSTAR>.59037E-3</BSTAR><MEAN_MOTION_DOT>.1821E-4</MEAN_MOTION_DOT><MEAN_MOTION_DDOT>0</MEAN_MOTION_DDOT></tleParameters></data></segment></body></omm>
<omm id="CCSDS_OMM_VERS" version="2.0">
<header><CREATION_DATE/><ORIGINATOR/></header><body><segment><metadata><OBJECT_NAME>ORBCOMM FM06 [+]</OBJECT_NAME><OBJECT_ID>1997-084G</OBJECT_ID><CENTER_NAME>EARTH</CENTER_NAME><REF_FRAME>TEME</REF_FRAME><TIME_SYSTEM>UTC</TIME_SYSTEM><MEAN_ELEMENT_THEORY>SGP4</MEAN_ELEMENT_THEORY></metadata><data><meanElements><EPOCH>2024-02-28T13:36:44.358912</EPOCH><MEAN_MOTION>14.42244655</MEAN_MOTION><ECCENTRICITY>.0002069</ECCENTRICITY><INCLINATION>45.0137</INCLINATION><RA_OF_ASC_NODE>120.3261</RA_OF_ASC_NODE><ARG_OF_PERICENTER>306.1657</ARG_OF_PERICENTER><MEAN_ANOMALY>207.2437</MEAN_ANOMALY></meanElements><tleParameters><EPHEMERIS_TYPE>0</EPHEMERIS_TYPE><CLASSIFICATION_TYPE>U</CLASSIFICATION_TYPE><NORAD_CAT_ID>25118</NORAD_CAT_ID><ELEMENT_SET_NO>999</ELEMENT_SET_NO><REV_AT_EPOCH>37294</REV_AT_EPOCH><BSTAR>.61638E-3</BSTAR><MEAN_MOTION_DOT>.1908E-4</MEAN_MOTION_DOT><MEAN_MOTION_DDOT>0</MEAN_MOTION_DDOT></tleParameters></data></segment></body></omm>
<omm id="CCSDS_OMM_VERS" version="2.0">
<header><CREATION_DATE/><ORIGINATOR/></header><body><segment><metadata><OBJECT_NAME>ORBCOMM FM07 [-]</OBJECT_NAME><OBJECT_ID>1997-084H</OBJECT_ID><CENTER_NAME>EARTH</CENTER_NAME><REF_FRAME>TEME</REF_FRAME><TIME_SYSTEM>UTC</TIME_SYSTEM><MEAN_ELEMENT_THEORY>SGP4</MEAN_ELEMENT_THEORY></metadata><data><meanElements><EPOCH>2024-02-28T12:36:15.741216</EPOCH><MEAN_MOTION>14.42174296</MEAN_MOTION><ECCENTRICITY>.0003782</ECCENTRICITY><INCLINATION>45.0133</INCLINATION><RA_OF_ASC_NODE>121.0243</RA_OF_ASC_NODE><ARG_OF_PERICENTER>312.9215</ARG_OF_PERICENTER><MEAN_ANOMALY>47.1317</MEAN_ANOMALY></meanElements><tleParameters><EPHEMERIS_TYPE>0</EPHEMERIS_TYPE><CLASSIFICATION_TYPE>U</CLASSIFICATION_TYPE><NORAD_CAT_ID>25119</NORAD_CAT_ID><ELEMENT_SET_NO>999</ELEMENT_SET_NO><REV_AT_EPOCH>37290</REV_AT_EPOCH><BSTAR>.56433E-3</BSTAR><MEAN_MOTION_DOT>.1732E-4</MEAN_MOTION_DOT><MEAN_MOTION_DDOT>0</MEAN_MOTION_DDOT></tleParameters></data></segment></body></omm>
<omm id="CCSDS_OMM_VERS" version="2.0">
<header><CREATION_DATE/><ORIGINATOR/></header><body><segment><metadata><OBJECT_NAME>ORBCOMM FM03 [-]</OBJECT_NAME><OBJECT_ID>1998-007B</OBJECT_ID><CENTER_NAME>EARTH</CENTER_NAME><REF_FRAME>TEME</REF_FRAME><TIME_SYSTEM>UTC</TIME_SYSTEM><MEAN_ELEMENT_THEORY>SGP4</MEAN_ELEMENT_THEORY></metadata><data><meanElements><EPOCH>2024-02-28T10:17:11.898816</EPOCH><MEAN_MOTION>14.31881665</MEAN_MOTION><ECCENTRICITY>.0047245</ECCENTRICITY><INCLINATION>107.9785</INCLINATION><RA_OF_ASC_NODE>242.1814</RA_OF_ASC_NODE><ARG_OF_PERICENTER>354.9828</ARG_OF_PERICENTER><MEAN_ANOMALY>5.0831</MEAN_ANOMALY></meanElements><tleParameters><EPHEMERIS_TYPE>0</EPHEMERIS_TYPE><CLASSIFICATION_TYPE>U</CLASSIFICATION_TYPE><NORAD_CAT_ID>25158</NORAD_CAT_ID><ELEMENT_SET_NO>999</ELEMENT_SET_NO><REV_AT_EPOCH>35602</REV_AT_EPOCH><BSTAR>.50527E-3</BSTAR><MEAN_MOTION_DOT>.124E-4</MEAN_MOTION_DOT><MEAN_MOTION_DDOT>0</MEAN_MOTION_DDOT></tleParameters></data></segment></body></omm>
<omm id="CCSDS_OMM_VERS" version="2.0">
<header><CREATION_DATE/><ORIGINATOR/></header><body><segment><metadata><OBJECT_NAME>ORBCOMM FM04 [+]</OBJECT_NAME><OBJECT_ID>1998-007C</OBJECT_ID><CENTER_NAME>EARTH</CENTER_NAME><REF_FRAME>TEME</REF_FRAME><TIME_SYSTEM>UTC</TIME_SYSTEM><MEAN_ELEMENT_THEORY>SGP4</MEAN_ELEMENT_THEORY></metadata><data><meanElements><EPOCH>2024-02-28T12:00:01.154304</EPOCH><MEAN_MOTION>14.32137318</MEAN_MOTION><ECCENTRICITY>.0042896</ECCENTRICITY><INCLINATION>107.9771</INCLINATION><RA_OF_ASC_NODE>245.2179</RA_OF_ASC_NODE><ARG_OF_PERICENTER>352.4665</ARG_OF_PERICENTER><MEAN_ANOMALY>7.5825</MEAN_ANOMALY></meanElements><tleParameters><EPHEMERIS_TYPE>0</EPHEMERIS_TYPE><CLASSIFICATION_TYPE>U</CLASSIFICATION_TYPE><NORAD_CAT_ID>25159</NORAD_CAT_ID><ELEMENT_SET_NO>999</ELEMENT_SET_NO><REV_AT_EPOCH>35620</REV_AT_EPOCH><BSTAR>.53747E-3</BSTAR><MEAN_MOTION_DOT>.1331E-4</MEAN_MOTION_DOT><MEAN_MOTION_DDOT>0</MEAN_MOTION_DDOT></tleParameters></data></segment></body></omm>
<omm id="CCSDS_OMM_VERS" version="2.0">
<header><CREATION_DATE/><ORIGINATOR/></header><body><segment><metadata><OBJECT_NAME>ORBCOMM FM17 [-]</OBJECT_NAME><OBJECT_ID>1998-046A</OBJECT_ID><CENTER_NAME>EARTH</CENTER_NAME><REF_FRAME>TEME</REF_FRAME><TIME_SYSTEM>UTC</TIME_SYSTEM><MEAN_ELEMENT_THEORY>SGP4</MEAN_ELEMENT_THEORY></metadata><data><meanElements><EPOCH>2024-02-28T11:22:58.520352</EPOCH><MEAN_MOTION>14.32859700</MEAN_MOTION><ECCENTRICITY>.0003243</ECCENTRICITY><INCLINATION>44.9966</INCLINATION><RA_OF_ASC_NODE>334.0084</RA_OF_ASC_NODE><ARG_OF_PERICENTER>349.3271</ARG_OF_PERICENTER><MEAN_ANOMALY>10.7505</MEAN_ANOMALY></meanElements><tleParameters><EPHEMERIS_TYPE>0</EPHEMERIS_TYPE><CLASSIFICATION_TYPE>U</CLASSIFICATION_TYPE><NORAD_CAT_ID>25413</NORAD_CAT_ID><ELEMENT_SET_NO>999</ELEMENT_SET_NO><REV_AT_EPOCH>33503</REV_AT_EPOCH><BSTAR>.50577E-3</BSTAR><MEAN_MOTION_DOT>.1252E-4</MEAN_MOTION_DOT><MEAN_MOTION_DDOT>0</MEAN_MOTION_DDOT></tleParameters></data></segment></body></omm>
<omm id="CCSDS_OMM_VERS" version="2.0">
<header><CREATION_DATE/><ORIGINATOR/></header><body><segment><metadata><OBJECT_NAME>ORBCOMM FM18 [-]</OBJECT_NAME><OBJECT_ID>1998-046B</OBJECT_ID><CENTER_NAME>EARTH</CENTER_NAME><REF_FRAME>TEME</REF_FRAME><TIME_SYSTEM>UTC</TIME_SYSTEM><MEAN_ELEMENT_THEORY>SGP4</MEAN_ELEMENT_THEORY></metadata><data><meanElements><EPOCH>2024-02-28T06:09:53.136864</EPOCH><MEAN_MOTION>14.35524662</MEAN_MOTION><ECCENTRICITY>.0004288</ECCENTRICITY><INCLINATION>44.9929</INCLINATION><RA_OF_ASC_NODE>263.6308</RA_OF_ASC_NODE><ARG_OF_PERICENTER>55.9463</ARG_OF_PERICENTER><MEAN_ANOMALY>304.1791</MEAN_ANOMALY></meanElements><tleParameters><EPHEMERIS_TYPE>0</EPHEMERIS_TYPE><CLASSIFICATION_TYPE>U</CLASSIFICATION_TYPE><NORAD_CAT_ID>25414</NORAD_CAT_ID><ELEMENT_SET_NO>999</ELEMENT_SET_NO><REV_AT_EPOCH>33593</REV_AT_EPOCH><BSTAR>.57902E-3</BSTAR><MEAN_MOTION_DOT>.1541E-4</MEAN_MOTION_DOT><MEAN_MOTION_DDOT>0</MEAN_MOTION_DDOT></tleParameters></data></segment></body></omm>
<omm id="CCSDS_OMM_VERS" version="2.0">
<header><CREATION_DATE/><ORIGINATOR/></header><body><segment><metadata><OBJECT_NAME>ORBCOMM FM19 [+]</OBJECT_NAME><OBJECT_ID>1998-046C</OBJECT_ID><CENTER_NAME>EARTH</CENTER_NAME><REF_FRAME>TEME</REF_FRAME><TIME_SYSTEM>UTC</TIME_SYSTEM><MEAN_ELEMENT_THEORY>SGP4</MEAN_ELEMENT_THEORY></metadata><data><meanElements><EPOCH>2024-02-28T07:36:39.113568</EPOCH><MEAN_MOTION>14.35361058</MEAN_MOTION><ECCENTRICITY>.0003121</ECCENTRICITY><INCLINATION>44.9940</INCLINATION><RA_OF_ASC_NODE>264.6615</RA_OF_ASC_NODE><ARG_OF_PERICENTER>48.6619</ARG_OF_PERICENTER><MEAN_ANOMALY>121.2984</MEAN_ANOMALY></meanElements><tleParameters><EPHEMERIS_TYPE>0</EPHEMERIS_TYPE><CLASSIFICATION_TYPE>U</CLASSIFICATION_TYPE><NORAD_CAT_ID>25415</NORAD_CAT_ID><ELEMENT_SET_NO>999</ELEMENT_SET_NO><REV_AT_EPOCH>33590</REV_AT_EPOCH><BSTAR>.57613E-3</BSTAR><MEAN_MOTION_DOT>.1527E-4</MEAN_MOTION_DOT><MEAN_MOTION_DDOT>0</MEAN_MOTION_DDOT></tleParameters></data></segment></body></omm>

</ndm>
