ORBCOMM FM05 [-]        
1 25117U 97084F   24059.43941482  .00001821  00000+0  59037-3 0  9997
2 25117  45.0145 120.7548 0002883 313.9109  46.1503 14.42245292371983
ORBCOMM FM06 [+]        
1 25118U 97084G   24059.56718008  .00001908  00000+0  61638-3 0  9994
2 25118  45.0137 120.3261 0002069 306.1657 207.2437 14.42244655372946
ORBCOMM FM07 [-]        
1 25119U 97084H   24059.52518219  .00001732  00000+0  56433-3 0  9995
2 25119  45.0133 121.0243 0003782 312.9215  47.1317 14.42174296372906
ORBCOMM FM03 [-]        
1 25158U 98007B   24059.42860994  .00001240  00000+0  50527-3 0  9995
2 25158 107.9785 242.1814 0047245 354.9828   5.0831 14.31881665356029
ORBCOMM FM04 [+]        
1 25159U 98007C   24059.50001336  .00001331  00000+0  53747-3 0  9990
2 25159 107.9771 245.2179 0042896 352.4665   7.5825 14.32137318356202
ORBCOMM FM17 [-]        
1 25413U 98046A   24059.47428843  .00001252  00000+0  50577-3 0  9998
2 25413  44.9966 334.0084 0003243 349.3271  10.7505 14.32859700335039
ORBCOMM FM18 [-]        
1 25414U 98046B   24059.25686501  .00001541  00000+0  57902-3 0  9992
2 25414  44.9929 263.6308 0004288  55.9463 304.1791 14.35524662335933
ORBCOMM FM19 [+]        
1 25415U 98046C   24059.31711937  .00001527  00000+0  57613-3 0  9995
2 25415  44.9940 264.6615 0003121  48.6619 121.2984 14.35361058335903
